STARLINK-34909          
1 65401U 25191Y   26068.63982076  .00005148  00000+0  36068-3 0  9990
2 65401  97.6021 301.5048 0002553  79.2579 280.8935 15.05650911 30278
KUIPER-00139            
1 65765U 25217D   26068.30974975  .00011274  00000+0  87196-3 0  9990
2 65765  51.8865  35.5400 0007119 318.9010  41.1425 15.01890214 24959
